0 AAU CUBESAT
1 27846U 03031G   13282.48543693  .00000176  00000-0  10052-3 0  6758
2 27846 098.6912 289.9259 0008286 251.3457 263.4898 14.21492615533094
0 AAU CUBESAT
1 27846U 03031G   13283.73293020  .00000193  00000-0  10798-3 0  6760
2 27846 098.6909 291.1543 0008326 247.3692 167.7516 14.21492908533270
0 AAU CUBESAT
1 27846U 03031G   13285.98490946  .00000186  00000-0  10488-3 0  6785
2 27846 098.6905 293.3718 0008441 240.2597 172.5765 14.21493970533593
0 AAU CUBESAT
1 27846U 03031G   13287.48318929  .00000188  00000-0  10600-3 0  6791
2 27846 098.6904 294.8469 0008500 235.5161 280.2559 14.21494910533808
0 AAU CUBESAT
1 27846U 03031G   13288.73120872  .00000244  00000-0  13124-3 0  6807
2 27846 098.6903 296.0756 0008553 231.6884 187.0721 14.21495719533989
0 AAU CUBESAT
1 27846U 03031G   13289.99711904  .00000223  00000-0  12177-3 0  6813
2 27846 098.6904 297.3218 0008624 227.7879 185.4650 14.21496614534165
0 AAU CUBESAT
1 27846U 03031G   13291.49483137  .00000205  00000-0  11354-3 0  6822
2 27846 098.6906 298.7961 0008697 223.1695 290.1305 14.21497611534375
0 AAU CUBESAT
1 27846U 03031G   13292.67387356  .00000245  00000-0  13172-3 0  6834
2 27846 098.6907 299.9567 0008756 219.5534 203.9623 14.21498016534542
0 AAU CUBESAT
1 27846U 03031G   13294.29318557  .00000254  00000-0  13590-3 0  6846
2 27846 098.6908 301.5508 0008830 214.5634 210.9311 14.21498828534775
0 AAU CUBESAT
1 27846U 03031G   13295.50880404  .00000258  00000-0  13775-3 0  6856
2 27846 098.6908 302.7476 0008902 210.8932 311.8893 14.21499732534942
